FENGYUN 1C DEB          
1 37469U 99025EJP 17345.04373656  .00002286  00000-0  34326-3 0  9997
2 37469  98.9379 278.9191 0065963 243.1176 116.3278 14.74281316405987
